COSMOS 1933             
1 18958U 88020A   26037.01419004  .00006294  00000+0  31073-3 0  9993
2 18958  82.5123 282.2502 0003332 332.5422  27.5635 15.17711388 45422
SL-3 R/B                
1 19046U 88032B   26037.52238243  .00007600  00000+0  35812-3 0  9992
2 19046  97.5152  20.9052 0025750 347.1943  12.8634 15.19501650 47377
SL-16 R/B               
1 19120U 88039B   26036.70836329 -.00000031  00000+0  80734-5 0  9997
2 19120  71.0150 136.1744 0020806  23.3344 336.8721 14.19611702953841
COSMOS 1953             
1 19210U 88050A   26037.39244317  .00012386  00000+0  45310-3 0  9990
2 19210  82.5092 189.7018 0010518 231.5715 128.4581 15.27883581 33007
SL-8 R/B                
1 19257U 88053B   26036.89787382  .00000349  00000+0  12167-3 0  9992
2 19257  74.0475 171.0602 0020280 356.3847 139.5134 14.38896449972020
COSMOS 1975             
1 19573U 88093A   26037.28673374  .00010150  00000+0  37544-3 0  9993
2 19573  82.5225 149.1850 0010376 281.9908  78.0168 15.27509889 14619
SL-14 R/B               
1 19574U 88093B   26037.06661183  .00000566  00000+0  62285-4 0  9996
2 19574  82.5282  71.7384 0021735 139.5498 243.3966 14.85621358996349
SL-16 R/B               
1 19650U 88102B   26037.47234191  .00000088  00000+0  68370-4 0  9992
2 19650  70.9970 217.1773 0012336  53.2023 307.0230 14.16146296922472
INTERCOSMOS 24          
1 20261U 89080A   26037.19033587  .00000709  00000+0  20511-3 0  9997
2 20261  82.6070 124.9056 1188199   5.9628 355.4261 12.59515321662835
SL-14 R/B               
1 20262U 89080C   26037.42898559  .00000488  00000+0  14807-3 0  9997
2 20262  82.5941 193.2545 1229438 256.2390  89.9190 12.50456357656245
DELTA 1 R/B             
1 20323U 89089B   26037.51225887  .00000519  00000+0  13722-3 0  9992
2 20323  97.0727 249.9050 0068089 220.3529 139.2606 14.50636658891219
ARIANE 40 R/B           
1 20443U 90005H   26037.12536612  .00000366  00000+0  13011-3 0  9994
2 20443  98.3151  98.7163 0009014 303.1422  56.8901 14.39849097888260
