CCSDS_OMM_VERS = 2.0
CREATION_DATE  = 
ORIGINATOR     = 

OBJECT_NAME    = COSMOS 1933
OBJECT_ID      = 1988-020A
CENTER_NAME    = EARTH
REF_FRAME      = TEME
TIME_SYSTEM    = UTC
MEAN_ELEMENT_THEORY = SGP/SGP4

EPOCH          = 2026-02-06T00:20:26.019456
MEAN_MOTION    = 15.17711388
ECCENTRICITY   = .00033323
INCLINATION    = 82.5123
RA_OF_ASC_NODE = 282.2502
ARG_OF_PERICENTER = 332.5422
MEAN_ANOMALY   = 27.5635

EPHEMERIS_TYPE = 0
CLASSIFICATION_TYPE = U
NORAD_CAT_ID   = 18958
ELEMENT_SET_NO = 999
REV_AT_EPOCH   = 4542
BSTAR          = .3107336E-3
MEAN_MOTION_DOT = .6294E-4
MEAN_MOTION_DDOT = 0

CCSDS_OMM_VERS = 2.0
CREATION_DATE  = 
ORIGINATOR     = 

OBJECT_NAME    = SL-3 R/B
OBJECT_ID      = 1988-032B
CENTER_NAME    = EARTH
REF_FRAME      = TEME
TIME_SYSTEM    = UTC
MEAN_ELEMENT_THEORY = SGP/SGP4

EPOCH          = 2026-02-06T12:32:13.841952
MEAN_MOTION    = 15.19501650
ECCENTRICITY   = .002575
INCLINATION    = 97.5152
RA_OF_ASC_NODE = 20.9052
ARG_OF_PERICENTER = 347.1943
MEAN_ANOMALY   = 12.8634

EPHEMERIS_TYPE = 0
CLASSIFICATION_TYPE = U
NORAD_CAT_ID   = 19046
ELEMENT_SET_NO = 999
REV_AT_EPOCH   = 4737
BSTAR          = .35812E-3
MEAN_MOTION_DOT = .76E-4
MEAN_MOTION_DDOT = 0

CCSDS_OMM_VERS = 2.0
CREATION_DATE  = 
ORIGINATOR     = 

OBJECT_NAME    = SL-16 R/B
OBJECT_ID      = 1988-039B
CENTER_NAME    = EARTH
REF_FRAME      = TEME
TIME_SYSTEM    = UTC
MEAN_ELEMENT_THEORY = SGP/SGP4

EPOCH          = 2026-02-05T17:00:02.588256
MEAN_MOTION    = 14.19611702
ECCENTRICITY   = .0020806
INCLINATION    = 71.0150
RA_OF_ASC_NODE = 136.1744
ARG_OF_PERICENTER = 23.3344
MEAN_ANOMALY   = 336.8721

EPHEMERIS_TYPE = 0
CLASSIFICATION_TYPE = U
NORAD_CAT_ID   = 19120
ELEMENT_SET_NO = 999
REV_AT_EPOCH   = 95384
BSTAR          = .80734E-5
MEAN_MOTION_DOT = -.31E-6
MEAN_MOTION_DDOT = 0

CCSDS_OMM_VERS = 2.0
CREATION_DATE  = 
ORIGINATOR     = 

OBJECT_NAME    = COSMOS 1953
OBJECT_ID      = 1988-050A
CENTER_NAME    = EARTH
REF_FRAME      = TEME
TIME_SYSTEM    = UTC
MEAN_ELEMENT_THEORY = SGP/SGP4

EPOCH          = 2026-02-06T09:25:07.089888
MEAN_MOTION    = 15.27883581
ECCENTRICITY   = .0010518
INCLINATION    = 82.5092
RA_OF_ASC_NODE = 189.7018
ARG_OF_PERICENTER = 231.5715
MEAN_ANOMALY   = 128.4581

EPHEMERIS_TYPE = 0
CLASSIFICATION_TYPE = U
NORAD_CAT_ID   = 19210
ELEMENT_SET_NO = 999
REV_AT_EPOCH   = 3300
BSTAR          = .4531E-3
MEAN_MOTION_DOT = .12386E-3
MEAN_MOTION_DDOT = 0

CCSDS_OMM_VERS = 2.0
CREATION_DATE  = 
ORIGINATOR     = 

OBJECT_NAME    = SL-8 R/B
OBJECT_ID      = 1988-053B
CENTER_NAME    = EARTH
REF_FRAME      = TEME
TIME_SYSTEM    = UTC
MEAN_ELEMENT_THEORY = SGP/SGP4

EPOCH          = 2026-02-05T21:32:56.298048
MEAN_MOTION    = 14.38896449
ECCENTRICITY   = .002028
INCLINATION    = 74.0475
RA_OF_ASC_NODE = 171.0602
ARG_OF_PERICENTER = 356.3847
MEAN_ANOMALY   = 139.5134

EPHEMERIS_TYPE = 0
CLASSIFICATION_TYPE = U
NORAD_CAT_ID   = 19257
ELEMENT_SET_NO = 999
REV_AT_EPOCH   = 97202
BSTAR          = .12167E-3
MEAN_MOTION_DOT = .349E-5
MEAN_MOTION_DDOT = 0

CCSDS_OMM_VERS = 2.0
CREATION_DATE  = 
ORIGINATOR     = 

OBJECT_NAME    = COSMOS 1975
OBJECT_ID      = 1988-093A
CENTER_NAME    = EARTH
REF_FRAME      = TEME
TIME_SYSTEM    = UTC
MEAN_ELEMENT_THEORY = SGP/SGP4

EPOCH          = 2026-02-06T06:52:53.795136
MEAN_MOTION    = 15.27509889
ECCENTRICITY   = .0010376
INCLINATION    = 82.5225
RA_OF_ASC_NODE = 149.1850
ARG_OF_PERICENTER = 281.9908
MEAN_ANOMALY   = 78.0168

EPHEMERIS_TYPE = 0
CLASSIFICATION_TYPE = U
NORAD_CAT_ID   = 19573
ELEMENT_SET_NO = 999
REV_AT_EPOCH   = 1461
BSTAR          = .37544E-3
MEAN_MOTION_DOT = .1015E-3
MEAN_MOTION_DDOT = 0

CCSDS_OMM_VERS = 2.0
CREATION_DATE  = 
ORIGINATOR     = 

OBJECT_NAME    = SL-14 R/B
OBJECT_ID      = 1988-093B
CENTER_NAME    = EARTH
REF_FRAME      = TEME
TIME_SYSTEM    = UTC
MEAN_ELEMENT_THEORY = SGP/SGP4

EPOCH          = 2026-02-06T01:35:55.262112
MEAN_MOTION    = 14.85621358
ECCENTRICITY   = .00217352
INCLINATION    = 82.5282
RA_OF_ASC_NODE = 71.7384
ARG_OF_PERICENTER = 139.5498
MEAN_ANOMALY   = 243.3966

EPHEMERIS_TYPE = 0
CLASSIFICATION_TYPE = U
NORAD_CAT_ID   = 19574
ELEMENT_SET_NO = 999
REV_AT_EPOCH   = 99634
BSTAR          = .62285124E-4
MEAN_MOTION_DOT = .566E-5
MEAN_MOTION_DDOT = 0

CCSDS_OMM_VERS = 2.0
CREATION_DATE  = 
ORIGINATOR     = 

OBJECT_NAME    = SL-16 R/B
OBJECT_ID      = 1988-102B
CENTER_NAME    = EARTH
REF_FRAME      = TEME
TIME_SYSTEM    = UTC
MEAN_ELEMENT_THEORY = SGP/SGP4

EPOCH          = 2026-02-06T11:20:10.341024
MEAN_MOTION    = 14.16146296
ECCENTRICITY   = .0012336
INCLINATION    = 70.9970
RA_OF_ASC_NODE = 217.1773
ARG_OF_PERICENTER = 53.2023
MEAN_ANOMALY   = 307.0230

EPHEMERIS_TYPE = 0
CLASSIFICATION_TYPE = U
NORAD_CAT_ID   = 19650
ELEMENT_SET_NO = 999
REV_AT_EPOCH   = 92247
BSTAR          = .6837E-4
MEAN_MOTION_DOT = .88E-6
MEAN_MOTION_DDOT = 0

CCSDS_OMM_VERS = 2.0
CREATION_DATE  = 
ORIGINATOR     = 

OBJECT_NAME    = INTERCOSMOS 24
OBJECT_ID      = 1989-080A
CENTER_NAME    = EARTH
REF_FRAME      = TEME
TIME_SYSTEM    = UTC
MEAN_ELEMENT_THEORY = SGP/SGP4

EPOCH          = 2026-02-06T04:34:05.019168
MEAN_MOTION    = 12.59515321
ECCENTRICITY   = .11881999
INCLINATION    = 82.6070
RA_OF_ASC_NODE = 124.9056
ARG_OF_PERICENTER = 5.9628
MEAN_ANOMALY   = 355.4261

EPHEMERIS_TYPE = 0
CLASSIFICATION_TYPE = U
NORAD_CAT_ID   = 20261
ELEMENT_SET_NO = 999
REV_AT_EPOCH   = 66283
BSTAR          = .2051134E-3
MEAN_MOTION_DOT = .709E-5
MEAN_MOTION_DDOT = 0

CCSDS_OMM_VERS = 2.0
CREATION_DATE  = 
ORIGINATOR     = 

OBJECT_NAME    = SL-14 R/B
OBJECT_ID      = 1989-080C
CENTER_NAME    = EARTH
REF_FRAME      = TEME
TIME_SYSTEM    = UTC
MEAN_ELEMENT_THEORY = SGP/SGP4

EPOCH          = 2026-02-06T10:17:44.354976
MEAN_MOTION    = 12.50456357
ECCENTRICITY   = .1229438
INCLINATION    = 82.5941
RA_OF_ASC_NODE = 193.2545
ARG_OF_PERICENTER = 256.2390
MEAN_ANOMALY   = 89.9190

EPHEMERIS_TYPE = 0
CLASSIFICATION_TYPE = U
NORAD_CAT_ID   = 20262
ELEMENT_SET_NO = 999
REV_AT_EPOCH   = 65624
BSTAR          = .14807E-3
MEAN_MOTION_DOT = .488E-5
MEAN_MOTION_DDOT = 0

CCSDS_OMM_VERS = 2.0
CREATION_DATE  = 
ORIGINATOR     = 

OBJECT_NAME    = DELTA 1 R/B
OBJECT_ID      = 1989-089B
CENTER_NAME    = EARTH
REF_FRAME      = TEME
TIME_SYSTEM    = UTC
MEAN_ELEMENT_THEORY = SGP/SGP4

EPOCH          = 2026-02-06T12:17:39.166368
MEAN_MOTION    = 14.50636658
ECCENTRICITY   = .0068089
INCLINATION    = 97.0727
RA_OF_ASC_NODE = 249.9050
ARG_OF_PERICENTER = 220.3529
MEAN_ANOMALY   = 139.2606

EPHEMERIS_TYPE = 0
CLASSIFICATION_TYPE = U
NORAD_CAT_ID   = 20323
ELEMENT_SET_NO = 999
REV_AT_EPOCH   = 89121
BSTAR          = .13722E-3
MEAN_MOTION_DOT = .519E-5
MEAN_MOTION_DDOT = 0

CCSDS_OMM_VERS = 2.0
CREATION_DATE  = 
ORIGINATOR     = 

OBJECT_NAME    = ARIANE 40 R/B
OBJECT_ID      = 1990-005H
CENTER_NAME    = EARTH
REF_FRAME      = TEME
TIME_SYSTEM    = UTC
MEAN_ELEMENT_THEORY = SGP/SGP4

EPOCH          = 2026-02-06T03:00:31.632768
MEAN_MOTION    = 14.39849097
ECCENTRICITY   = .0009014
INCLINATION    = 98.3151
RA_OF_ASC_NODE = 98.7163
ARG_OF_PERICENTER = 303.1422
MEAN_ANOMALY   = 56.8901

EPHEMERIS_TYPE = 0
CLASSIFICATION_TYPE = U
NORAD_CAT_ID   = 20443
ELEMENT_SET_NO = 999
REV_AT_EPOCH   = 88826
BSTAR          = .13010809E-3
MEAN_MOTION_DOT = .366E-5
MEAN_MOTION_DDOT = 0

